{
  "links" : {
    "next" : "https://api.nasa.gov/neo/rest/v1/feed?start_date=2008-04-23&end_date=2008-04-23&detailed=true&api_key=t0TVs3DtDT2H8Oy2Zy8m2eVrNsAVKAexjcZXUckd",
    "prev" : "https://api.nasa.gov/neo/rest/v1/feed?start_date=2008-04-21&end_date=2008-04-21&detailed=true&api_key=t0TVs3DtDT2H8Oy2Zy8m2eVrNsAVKAexjcZXUckd",
    "self" : "https://api.nasa.gov/neo/rest/v1/feed?start_date=2008-04-22&end_date=2008-04-22&detailed=true&api_key=t0TVs3DtDT2H8Oy2Zy8m2eVrNsAVKAexjcZXUckd"
  },
  "element_count" : 10,
  "near_earth_objects" : {
    "2008-04-22" : [ {
      "links" : {
        "self" : "https://api.nasa.gov/neo/rest/v1/neo/3397141?api_key=t0TVs3DtDT2H8Oy2Zy8m2eVrNsAVKAexjcZXUckd"
      },
      "neo_reference_id" : "3397141",
      "name" : "(2007 VR183)",
      "nasa_jpl_url" : "http://ssd.jpl.nasa.gov/sbdb.cgi?sstr=3397141",
      "absolute_magnitude_h" : 17.5,
      "estimated_diameter" : {
        "kilometers" : {
          "estimated_diameter_min" : 0.8405334021,
          "estimated_diameter_max" : 1.8794898244
        },
        "meters" : {
          "estimated_diameter_min" : 840.5334020728,
          "estimated_diameter_max" : 1879.4898243938
        },
        "miles" : {
          "estimated_diameter_min" : 0.5222830806,
          "estimated_diameter_max" : 1.1678604717
        },
        "feet" : {
          "estimated_diameter_min" : 2757.6556068564,
          "estimated_diameter_max" : 6166.3053954643
        }
      },
      "is_potentially_hazardous_asteroid" : false,
      "close_approach_data" : [ {
        "close_approach_date" : "2008-04-22",
        "epoch_date_close_approach" : 1208847600000,
        "relative_velocity" : {
          "kilometers_per_second" : "19.6703657721",
          "kilometers_per_hour" : "70813.316779592",
          "miles_per_hour" : "44000.6411956304"
        },
        "miss_distance" : {
          "astronomical" : "0.2584726623",
          "lunar" : "100.5458602905",
          "kilometers" : "38666960",
          "miles" : "24026534"
        },
        "orbiting_body" : "Earth"
      } ],
      "orbital_data" : {
        "orbit_id" : "50",
        "orbit_determination_date" : "2017-06-23 06:18:29",
        "orbit_uncertainty" : "0",
        "minimum_orbit_intersection" : ".196327",
        "jupiter_tisserand_invariant" : "2.971",
        "epoch_osculation" : "2458000.5",
        "eccentricity" : ".6187799958371656",
        "semi_major_axis" : "2.688146380830663",
        "inclination" : "23.49789816466561",
        "ascending_node_longitude" : "220.4579946747966",
        "orbital_period" : "1609.821777327943",
        "perihelion_distance" : "1.024775174490574",
        "perihelion_argument" : "298.1707185410708",
        "aphelion_distance" : "4.351517587170752",
        "perihelion_time" : "2457762.846227199277",
        "mean_anomaly" : "53.14585714591893",
        "mean_motion" : ".2236272394063054",
        "equinox" : "J2000"
      }
    }, {
      "links" : {
        "self" : "https://api.nasa.gov/neo/rest/v1/neo/3408076?api_key=t0TVs3DtDT2H8Oy2Zy8m2eVrNsAVKAexjcZXUckd"
      },
      "neo_reference_id" : "3408076",
      "name" : "(2008 CP23)",
      "nasa_jpl_url" : "http://ssd.jpl.nasa.gov/sbdb.cgi?sstr=3408076",
      "absolute_magnitude_h" : 19.6,
      "estimated_diameter" : {
        "kilometers" : {
          "estimated_diameter_min" : 0.3195618867,
          "estimated_diameter_max" : 0.7145621017
        },
        "meters" : {
          "estimated_diameter_min" : 319.5618867213,
          "estimated_diameter_max" : 714.5621017269
        },
        "miles" : {
          "estimated_diameter_min" : 0.1985664891,
          "estimated_diameter_max" : 0.4440081677
        },
        "feet" : {
          "estimated_diameter_min" : 1048.4314204307,
          "estimated_diameter_max" : 2344.3639258298
        }
      },
      "is_potentially_hazardous_asteroid" : false,
      "close_approach_data" : [ {
        "close_approach_date" : "2008-04-22",
        "epoch_date_close_approach" : 1208847600000,
        "relative_velocity" : {
          "kilometers_per_second" : "4.2989248024",
          "kilometers_per_hour" : "15476.1292887154",
          "miles_per_hour" : "9616.2648905354"
        },
        "miss_distance" : {
          "astronomical" : "0.3467065213",
          "lunar" : "134.8688354492",
          "kilometers" : "51866556",
          "miles" : "32228384"
        },
        "orbiting_body" : "Earth"
      } ],
      "orbital_data" : {
        "orbit_id" : "23",
        "orbit_determination_date" : "2017-04-06 09:04:26",
        "orbit_uncertainty" : "1",
        "minimum_orbit_intersection" : ".211053",
        "jupiter_tisserand_invariant" : "3.515",
        "epoch_osculation" : "2458000.5",
        "eccentricity" : ".4542533587216667",
        "semi_major_axis" : "2.207622776400375",
        "inclination" : "3.776098442017574",
        "ascending_node_longitude" : "136.9160405358666",
        "orbital_period" : "1198.079745202167",
        "perihelion_distance" : "1.204802715430054",
        "perihelion_argument" : "82.57219468460029",
        "aphelion_distance" : "3.210442837370696",
        "perihelion_time" : "2458194.843413667894",
        "mean_anomaly" : "301.6035291468548",
        "mean_motion" : ".3004808331345695",
        "equinox" : "J2000"
      }
    }, {
      "links" : {
        "self" : "https://api.nasa.gov/neo/rest/v1/neo/3409708?api_key=t0TVs3DtDT2H8Oy2Zy8m2eVrNsAVKAexjcZXUckd"
      },
      "neo_reference_id" : "3409708",
      "name" : "(2008 HV4)",
      "nasa_jpl_url" : "http://ssd.jpl.nasa.gov/sbdb.cgi?sstr=3409708",
      "absolute_magnitude_h" : 19.6,
      "estimated_diameter" : {
        "kilometers" : {
          "estimated_diameter_min" : 0.3195618867,
          "estimated_diameter_max" : 0.7145621017
        },
        "meters" : {
          "estimated_diameter_min" : 319.5618867213,
          "estimated_diameter_max" : 714.5621017269
        },
        "miles" : {
          "estimated_diameter_min" : 0.1985664891,
          "estimated_diameter_max" : 0.4440081677
        },
        "feet" : {
          "estimated_diameter_min" : 1048.4314204307,
          "estimated_diameter_max" : 2344.3639258298
        }
      },
      "is_potentially_hazardous_asteroid" : false,
      "close_approach_data" : [ {
        "close_approach_date" : "2008-04-22",
        "epoch_date_close_approach" : 1208847600000,
        "relative_velocity" : {
          "kilometers_per_second" : "11.150124042",
          "kilometers_per_hour" : "40140.4465511834",
          "miles_per_hour" : "24941.7124695395"
        },
        "miss_distance" : {
          "astronomical" : "0.4474391162",
          "lunar" : "174.053817749",
          "kilometers" : "66935936",
          "miles" : "41592064"
        },
        "orbiting_body" : "Earth"
      } ],
      "orbital_data" : {
        "orbit_id" : "55",
        "orbit_determination_date" : "2017-09-23 06:50:00",
        "orbit_uncertainty" : "1",
        "minimum_orbit_intersection" : ".175219",
        "jupiter_tisserand_invariant" : "4.588",
        "epoch_osculation" : "2458000.5",
        "eccentricity" : ".2779089642314824",
        "semi_major_axis" : "1.4264425490884",
        "inclination" : "20.8181528594977",
        "ascending_node_longitude" : "224.0346760816633",
        "orbital_period" : "622.2714188547402",
        "perihelion_distance" : "1.030021377735527",
        "perihelion_argument" : "249.4576210911956",
        "aphelion_distance" : "1.822863720441273",
        "perihelion_time" : "2458184.455871454664",
        "mean_anomaly" : "253.5768031166187",
        "mean_motion" : ".5785256868498995",
        "equinox" : "J2000"
      }
    } ]
  }
}